[{"OBJECT_NAME":"STARLINK-35641","OBJECT_ID":"2025-240X","EPOCH":"2026-03-09T23:08:11.652000","MEAN_MOTION":15.30209821,"ECCENTRICITY":0.00018221,"INCLINATION":53.1609,"RA_OF_ASC_NODE":61.2978,"ARG_OF_PERICENTER":97.0418,"MEAN_ANOMALY":263.079,"EPHEMERIS_TYPE":0,"CLASSIFICATION_TYPE":"U","NORAD_CAT_ID":66167,"ELEMENT_SET_NO":999,"REV_AT_EPOCH":2203,"BSTAR":0.00088509312,"MEAN_MOTION_DOT":0.00025954,"MEAN_MOTION_DDOT":0},{"OBJECT_NAME":"FENGYUN 1C DEB","OBJECT_ID":"1999-025ETT","EPOCH":"2026-03-07T08:30:03.670560","MEAN_MOTION":15.28888299,"ECCENTRICITY":0.00158464,"INCLINATION":99.1103,"RA_OF_ASC_NODE":112.0072,"ARG_OF_PERICENTER":201.0032,"MEAN_ANOMALY":159.0553,"EPHEMERIS_TYPE":0,"CLASSIFICATION_TYPE":"U","NORAD_CAT_ID":38726,"ELEMENT_SET_NO":999,"REV_AT_EPOCH":71135,"BSTAR":0.013792546,"MEAN_MOTION_DOT":0.00409659,"MEAN_MOTION_DDOT":0}]
